STARLINK-32710          
1 62604U 25008T   26068.00560064  .00034734  00000+0  12656-2 0  9998
2 62604  43.0054 281.4422 0003349 264.1752  95.8718 15.27583206 65463
PELICAN-6               
1 66703U 25276AP  26068.70709364  .00077979  00000+0  29726-2 0  9998
2 66703  97.4276 144.2072 0003569 157.8575 202.2819 15.26377980 15334
